{
  "norad_id": 54761,
  "name": "STARLINK-5202",
  "history": [
    {
      "epoch": "2026-04-14T15:27:19.903968Z",
      "apogee_km": 540.7216373326628,
      "perigee_km": 538.7998453401196,
      "latitude_deg": -5.7713441229315245e-05,
      "longitude_deg": 168.2924751822939,
      "height_km": 540.5774752470116,
      "semi_major_axis_km": 6917.897741336391,
      "eccentricity": 0.0001389,
      "inclination_deg": 53.2155,
      "raan_deg": 242.9429,
      "arg_perigee_deg": 85.2994,
      "mean_anomaly_deg": 274.8156,
      "mean_motion_rev_day": 15.08834323
    },
    {
      "epoch": "2026-04-15T15:18:06.689952Z",
      "apogee_km": 540.6325915662619,
      "perigee_km": 538.8574630380563,
      "latitude_deg": -9.752216608366681e-06,
      "longitude_deg": 165.1566371078547,
      "height_km": 540.6262743971047,
      "semi_major_axis_km": 6917.882027302158,
      "eccentricity": 0.0001283,
      "inclination_deg": 53.2168,
      "raan_deg": 238.4813,
      "arg_perigee_deg": 89.0637,
      "mean_anomaly_deg": 271.0502,
      "mean_motion_rev_day": 15.08839464
    },
    {
      "epoch": "2026-04-16T18:19:39.522432Z",
      "apogee_km": 540.6002595865639,
      "perigee_km": 538.8597242513979,
      "latitude_deg": -1.7808468256081047e-06,
      "longitude_deg": 113.60553357934906,
      "height_km": 540.5745462436444,
      "semi_major_axis_km": 6917.866991918981,
      "eccentricity": 0.0001258,
      "inclination_deg": 53.2171,
      "raan_deg": 233.4269,
      "arg_perigee_deg": 86.6228,
      "mean_anomaly_deg": 273.4908,
      "mean_motion_rev_day": 15.08844383
    },
    {
      "epoch": "2026-04-17T14:59:40.797600Z",
      "apogee_km": 540.6212122740781,
      "perigee_km": 538.8683593871838,
      "latitude_deg": 2.1407960946395532e-05,
      "longitude_deg": 158.885374403308,
      "height_km": 540.5650383337875,
      "semi_major_axis_km": 6917.88178583063,
      "eccentricity": 0.00012669,
      "inclination_deg": 53.2163,
      "raan_deg": 229.5608,
      "arg_perigee_deg": 85.0601,
      "mean_anomaly_deg": 275.0536,
      "mean_motion_rev_day": 15.08839543
    },
    {
      "epoch": "2026-04-18T14:50:27.333024Z",
      "apogee_km": 540.6121076365071,
      "perigee_km": 538.8356009691224,
      "latitude_deg": 2.9370593560609607e-05,
      "longitude_deg": 155.751652061009,
      "height_km": 540.5399842948482,
      "semi_major_axis_km": 6917.860854302815,
      "eccentricity": 0.0001284,
      "inclination_deg": 53.2156,
      "raan_deg": 225.1003,
      "arg_perigee_deg": 84.8653,
      "mean_anomaly_deg": 275.2486,
      "mean_motion_rev_day": 15.08846391
    },
    {
      "epoch": "2026-04-19T14:41:14.556192Z",
      "apogee_km": 540.6405355904699,
      "perigee_km": 538.8391204644513,
      "latitude_deg": -2.6122928796786082e-05,
      "longitude_deg": 152.61730788807188,
      "height_km": 540.626599512988,
      "semi_major_axis_km": 6917.87682802746,
      "eccentricity": 0.0001302,
      "inclination_deg": 53.2177,
      "raan_deg": 220.6421,
      "arg_perigee_deg": 89.4242,
      "mean_anomaly_deg": 270.6899,
      "mean_motion_rev_day": 15.08841165
    },
    {
      "epoch": "2026-04-20T00:13:33.677184Z",
      "apogee_km": 540.5986002686759,
      "perigee_km": 538.9026109432862,
      "latitude_deg": -4.2132240493790026e-05,
      "longitude_deg": 7.361486456180187,
      "height_km": 540.6219287459924,
      "semi_major_axis_km": 6917.887605605981,
      "eccentricity": 0.00012258,
      "inclination_deg": 53.2167,
      "raan_deg": 218.8577,
      "arg_perigee_deg": 88.3444,
      "mean_anomaly_deg": 271.7688,
      "mean_motion_rev_day": 15.08837639
    },
    {
      "epoch": "2026-04-21T12:47:25.443168Z",
      "apogee_km": 540.6092811159106,
      "perigee_km": 538.8217080313125,
      "latitude_deg": -8.994489831728434e-06,
      "longitude_deg": 170.55397020474334,
      "height_km": 540.5832835821261,
      "semi_major_axis_km": 6917.852494573612,
      "eccentricity": 0.0001292,
      "inclination_deg": 53.2177,
      "raan_deg": 212.0175,
      "arg_perigee_deg": 88.2016,
      "mean_anomaly_deg": 271.9124,
      "mean_motion_rev_day": 15.08849126
    },
    {
      "epoch": "2026-04-22T12:38:13.396416Z",
      "apogee_km": 540.745574343322,
      "perigee_km": 538.7846258140344,
      "latitude_deg": -3.8285805256987633e-05,
      "longitude_deg": 167.41149345525636,
      "height_km": 540.6381551087967,
      "semi_major_axis_km": 6917.902100078678,
      "eccentricity": 0.00014173,
      "inclination_deg": 53.2162,
      "raan_deg": 207.5542,
      "arg_perigee_deg": 88.6881,
      "mean_anomaly_deg": 271.4273,
      "mean_motion_rev_day": 15.08832897
    },
    {
      "epoch": "2026-04-23T12:28:58.975392Z",
      "apogee_km": 540.8762636037873,
      "perigee_km": 538.5109189680152,
      "latitude_deg": 9.27125597511383e-06,
      "longitude_deg": 164.28279416090416,
      "height_km": 540.5484398442982,
      "semi_major_axis_km": 6917.830591285901,
      "eccentricity": 0.00017096,
      "inclination_deg": 53.2146,
      "raan_deg": 203.0947,
      "arg_perigee_deg": 88.0582,
      "mean_anomaly_deg": 272.0606,
      "mean_motion_rev_day": 15.08856292
    },
    {
      "epoch": "2026-04-24T12:19:47.572320Z",
      "apogee_km": 540.6212813666289,
      "perigee_km": 539.1159233475564,
      "latitude_deg": -1.510630867761903e-05,
      "longitude_deg": 161.13853290779693,
      "height_km": 540.5245277805705,
      "semi_major_axis_km": 6918.005602357092,
      "eccentricity": 0.0001088,
      "inclination_deg": 53.2145,
      "raan_deg": 198.6323,
      "arg_perigee_deg": 71.4131,
      "mean_anomaly_deg": 288.6979,
      "mean_motion_rev_day": 15.08799036
    }
  ]
}